GLOBALSTAR M001 [-]     
1 25162U 98008A   23237.56827418 -.00000108  00000+0 -87080-4 0  9996
2 25162  52.0030  98.8395 0001324 331.0761  63.1706 12.38166393161756
GLOBALSTAR M004 [-]     
1 25163U 98008B   23237.45232083 -.00000077  00000+0  14813-3 0  9990
2 25163  51.9980 272.8578 0002818 256.5875 244.3443 12.63336529178041
GLOBALSTAR M002 [-]     
1 25164U 98008C   23237.12181973 -.00000077  00000+0 -15430-4 0  9994
2 25164  52.0006 100.2001 0001975  28.6110 331.4818 11.61495403107131
GLOBALSTAR M003 [-]     
1 25165U 98008D   23237.32532316  .00000052  00000+0  15089-2 0  9997
2 25165  51.9705 201.7709 0008053  41.8883 107.1748 12.11931358152967
GLOBALSTAR M014 [-]     
1 25306U 98023A   23237.62502361 -.00000070  00000+0  14722-3 0  9996
2 25306  51.9855  36.0650 0000601 156.9358 283.5200 11.65458960114039
GLOBALSTAR M006 [-]     
1 25307U 98023B   23237.49734962 -.00000084  00000+0 -18019-3 0  9995
2 25307  51.9942  64.1317 0003791  11.2411  10.9086 11.58153097140167
GLOBALSTAR M015 [-]     
1 25308U 98023C   23237.22293318 -.00000077  00000+0 -83663-4 0  9992
2 25308  51.9814 132.9612 0012696 342.8791 188.4196 11.48848947117998
GLOBALSTAR M008 [-]     
1 25309U 98023D   23237.52658021 -.00000046  00000+0  39326-3 0  9993
2 25309  51.9986 316.3057 0002508 207.8640 254.4536 12.36026309156021
